STARLINK-30232
1 57303U 23096P   26061.05698090  .00754248  26786-3  13452-2 0  9999
2 57303  42.9713 183.1180 0026058 349.1597  10.8716 16.00274761147275
